{
  "links" : {
    "next" : "https://api.nasa.gov/neo/rest/v1/feed?start_date=2014-09-16&end_date=2014-09-16&detailed=true&api_key=t0TVs3DtDT2H8Oy2Zy8m2eVrNsAVKAexjcZXUckd",
    "prev" : "https://api.nasa.gov/neo/rest/v1/feed?start_date=2014-09-14&end_date=2014-09-14&detailed=true&api_key=t0TVs3DtDT2H8Oy2Zy8m2eVrNsAVKAexjcZXUckd",
    "self" : "https://api.nasa.gov/neo/rest/v1/feed?start_date=2014-09-15&end_date=2014-09-15&detailed=true&api_key=t0TVs3DtDT2H8Oy2Zy8m2eVrNsAVKAexjcZXUckd"
  },
  "element_count" : 13,
  "near_earth_objects" : {
    "2014-09-15" : [ {
      "links" : {
        "self" : "https://api.nasa.gov/neo/rest/v1/neo/3771639?api_key=t0TVs3DtDT2H8Oy2Zy8m2eVrNsAVKAexjcZXUckd"
      },
      "neo_reference_id" : "3771639",
      "name" : "(2017 FC3)",
      "nasa_jpl_url" : "http://ssd.jpl.nasa.gov/sbdb.cgi?sstr=3771639",
      "absolute_magnitude_h" : 23.578,
      "estimated_diameter" : {
        "kilometers" : {
          "estimated_diameter_min" : 0.0511628792,
          "estimated_diameter_max" : 0.1144036758
        },
        "meters" : {
          "estimated_diameter_min" : 51.1628792135,
          "estimated_diameter_max" : 114.4036758459
        },
        "miles" : {
          "estimated_diameter_min" : 0.0317911294,
          "estimated_diameter_max" : 0.0710871265
        },
        "feet" : {
          "estimated_diameter_min" : 167.8572206387,
          "estimated_diameter_max" : 375.3401558623
        }
      },
      "is_potentially_hazardous_asteroid" : false,
      "close_approach_data" : [ {
        "close_approach_date" : "2014-09-15",
        "epoch_date_close_approach" : 1410764400000,
        "relative_velocity" : {
          "kilometers_per_second" : "25.0808273582",
          "kilometers_per_hour" : "90290.9784895178",
          "miles_per_hour" : "56103.3027175562"
        },
        "miss_distance" : {
          "astronomical" : "0.3787895636",
          "lunar" : "147.3491516113",
          "kilometers" : "56666116",
          "miles" : "35210692"
        },
        "orbiting_body" : "Earth"
      } ],
      "orbital_data" : {
        "orbit_id" : "11",
        "orbit_determination_date" : "2017-04-26 06:21:06",
        "orbit_uncertainty" : "5",
        "minimum_orbit_intersection" : ".00162972",
        "jupiter_tisserand_invariant" : "4.050",
        "epoch_osculation" : "2458000.5",
        "eccentricity" : ".5393178047785258",
        "semi_major_axis" : "1.678238221971535",
        "inclination" : "6.970817909867533",
        "ascending_node_longitude" : "195.0543022486576",
        "orbital_period" : "794.1066607760029",
        "perihelion_distance" : ".7731344682024307",
        "perihelion_argument" : "248.4306647678113",
        "aphelion_distance" : "2.58334197574064",
        "perihelion_time" : "2457756.520831609492",
        "mean_anomaly" : "110.6054198497124",
        "mean_motion" : ".4533396050956268",
        "equinox" : "J2000"
      }
    } ]
  }
}